GLOBALSTAR M067 [+]     
1 32263U 07048A   23321.13153080 -.00000078  00000+0  14081-3 0  9999
2 32263  51.9733 287.3127 0000574 150.8627 307.7404 12.40634386737976
GLOBALSTAR M070 [+]     
1 32264U 07048B   23321.13178817 -.00000107  00000+0 -15866-4 0  9992
2 32264  51.9741  89.4343 0000485 132.6426  38.9174 12.62281971741641
GLOBALSTAR M066 [+]     
1 32265U 07048C   23320.28329015 -.00000083  00000+0  11712-3 0  9993
2 32265  51.9687 314.0731 0000788  53.8556  51.9294 12.62276238742822
GLOBALSTAR M068 [-]     
1 32266U 07048D   23321.03901274 -.00000062  00000+0  23333-3 0  9990
2 32266  51.9887 264.5646 0000898 355.1916  84.7706 12.62771280744808
GLOBALSTAR M079 [+]     
1 37188U 10054A   23321.15802339 -.00000111  00000+0 -40760-4 0  9994
2 37188  52.0023  99.3974 0001101 108.7806  62.8899 12.62269906604134
GLOBALSTAR M074 [+]     
1 37189U 10054B   23320.35842591 -.00000114  00000+0 -55031-4 0  9990
2 37189  51.9999 101.2430 0000879 110.5299 266.4627 12.62271951603967
GLOBALSTAR M076 [+]     
1 37190U 10054C   23321.13151450 -.00000113  00000+0 -49218-4 0  9995
2 37190  52.0014  99.0095 0001263 131.8477  38.7607 12.62263811604136
GLOBALSTAR M077 [+]     
1 37191U 10054D   23320.21153701 -.00000095  00000+0  50220-4 0  9998
2 37191  52.0080  58.5005 0000616 122.2751 245.0596 12.62266428604037
